STARLINK-31836          
1 59724U 24088S   26068.51447144 -.00000143  00000+0  73059-5 0  9998
2 59724  53.1605 140.8406 0001288 114.5966 245.5170 15.30181197103658
YAOGAN-43 01D           
1 60461U 24148D   26068.43560480  .00010676  00000+0  37766-3 0  9999
2 60461  35.0010  61.7102 0002556 326.2473  33.8080 15.28369377 87008
